satname,norad_id,inclination_deg,eccentricity,mean_motion_rev_per_day,perigee_km,apogee_km,l1,l2
STARLINK-1134,45048,53.0475,0.0006105,15.22784697,493.2480824316299,501.6431688175171,1 45048U 20006E   25255.52883426  .00010036  00000+0  43737-3 0  9992,2 45048  53.0475 351.2225 0006105 342.5214  17.5571 15.22784697309829
STARLINK-1156,45054,53.0588,0.0001288,15.064069,546.2984283423066,548.0823926832545,1 45054U 20006L   25255.59114444  .00000646  00000+0  62270-4 0  9993,2 45054  53.0588   6.1389 0001288  90.7181 269.3955 15.06406900309610
STARLINK-1159,45057,53.0568,0.0001362,15.06403866,546.2564783706275,548.1429400902216,1 45057U 20006P   25254.61069241 -.00000017  00000+0  17748-4 0  9995,2 45057  53.0568  10.5359 0001362  85.5373 274.5772 15.06403866309472
STARLINK-1166,45060,53.0554,0.0001203,15.06379117,546.4424349337578,548.1086891961913,1 45060U 20006S   25255.61694843 -.00006703  00000+0 -43180-3 0  9999,2 45060  53.0554   6.0200 0001203  52.7617 307.3481 15.06379117309627
STARLINK-1169,45061,53.0584,0.0001522,15.06391255,546.1843181036002,548.2924023632568,1 45061U 20006T   25254.62912904 -.00001166  00000+0 -59392-4 0  9992,2 45061  53.0584  10.4569 0001522  98.8567 261.2594 15.06391255309470
STARLINK-1171,45062,53.0568,0.0001316,15.06391043,546.3276305063418,548.1503894721709,1 45062U 20006U   25254.61437885  .00001366  00000+0  11058-3 0  9998,2 45062  53.0568  10.5169 0001316  87.0391 273.0749 15.06391043309474
STARLINK-1133,45064,53.057,0.0001377,15.06393286,546.2785121277611,548.1857587876657,1 45064U 20006W   25255.55613639  .00000932  00000+0  81459-4 0  9998,2 45064  53.0570 346.2868 0001377  78.7726 281.3418 15.06393286309892
STARLINK-1150,45067,53.0432,0.0004251,15.91005858,296.62827185607694,302.3055707099511,1 45067U 20006Z   25255.58335648  .00314893  48056-4  98494-3 0  9993,2 45067  53.0432 297.2874 0004251 335.9750   7.6839 15.91005858  5891
STARLINK-1167,45071,53.0549,0.0001624,15.06397456,546.0946770708051,548.3440328148899,1 45071U 20006AD  25254.58673063 -.00000749  00000+0 -31406-4 0  9990,2 45071  53.0549 350.6465 0001624  66.1950 293.9210 15.06397456309749
STARLINK-1168,45072,53.0549,0.0001056,15.06405889,546.462194158491,547.9248239620047,1 45072U 20006AE  25255.51927220  .00002109  00000+0  16043-3 0  9991,2 45072  53.0549 346.4583 0001056  94.2395 265.8715 15.06405889309881
STARLINK-1172,45074,53.0582,0.0001395,15.06404642,546.2312467742195,548.1634150525442,1 45074U 20006AG  25255.53032607 -.00000039  00000+0  16273-4 0  9998,2 45074  53.0582 346.4093 0001395  89.5365 270.5784 15.06404642309881
STARLINK-1153,45080,53.0551,0.0001151,15.06396728,546.4244773919081,548.0186949384424,1 45080U 20006AN  25255.24284650  .00000595  00000+0  58808-4 0  9996,2 45080  53.0551 347.7002 0001151  88.7468 271.3653 15.06396728309848
STARLINK-1151,45081,53.0581,0.0001397,15.0640298,546.2349547649055,548.1698946001616,1 45081U 20006AP  25255.55982224  .00000416  00000+0  46836-4 0  9993,2 45081  53.0581 346.3518 0001397  92.5289 267.5860 15.06402980309895
STARLINK-1190,45083,53.0508,0.000742,15.71545936,349.4825192700009,359.47372010761865,1 45083U 20006AR  25255.47998045  .00068982  00000+0  52678-3 0  9996,2 45083  53.0508 323.0407 0007420   3.6116 356.4954 15.71545936310211
STARLINK-1173,45084,53.0465,0.0010278,15.78748565,327.0865968236785,340.88403545673646,1 45084U 20006AS  25255.58335648  .00173877  00000+0  95183-3 0  9991,2 45084  53.0465 286.9765 0010278 339.8453 218.7358 15.78748565  5973
STARLINK-1179,45085,53.0408,0.0006055,15.89775069,298.86759333622376,306.9583448487947,1 45085U 20006AT  25255.58335648  .00261657  36051-4  87254-3 0  9996,2 45085  53.0408 278.3513 0006055 350.5108 165.4484 15.89775069  6051
STARLINK-1185,45087,53.0554,0.0001312,15.06401902,546.2971236223584,548.1143335543402,1 45087U 20006AV  25255.46951586  .00000194  00000+0  31941-4 0  9990,2 45087  53.0554 326.6804 0001312  82.3024 277.8114 15.06401902310162
STARLINK-1183,45088,53.0572,0.000123,15.0640148,546.3552046404502,548.0588392698519,1 45088U 20006AW  25255.49162960  .00001069  00000+0  90664-4 0  9993,2 45088  53.0572 326.5814 0001230  68.4800 291.6320 15.06401480310163
STARLINK-1176,45090,53.0495,0.0005739,15.76359354,336.9097834145241,344.6217400044143,1 45090U 20006AY  25255.50748828  .00151244  00000+0  92588-3 0  9998,2 45090  53.0495 284.9188 0005739 317.9280  42.1298 15.76359354310750
STARLINK-1142,45093,53.0386,0.000622,15.4894823,415.57331128636815,424.0299469409856,1 45093U 20006BB  25255.46351651  .00052170  00000+0  95111-3 0  9993,2 45093  53.0386 276.7611 0006220  26.1361 333.9959 15.48948230310860
STARLINK-1146,45094,53.0471,0.0006368,15.90687152,296.10596375905334,304.61169604801853,1 45094U 20006BC  25255.58335648  .00296368  43622-4  94189-3 0  9990,2 45094  53.0471 279.4909 0006368 341.5709 109.5284 15.90687152  6050
STARLINK-1147,45095,53.0428,0.0010013,15.87798177,301.7620371506564,315.15261094399284,1 45095U 20006BD  25255.58335648  .00197575  00000+0  70330-3 0  9991,2 45095  53.0428 282.1007 0010013 348.9695 186.5986 15.87798177  6049
STARLINK-1152,45096,53.0497,0.0004531,15.20321053,501.75274160302706,507.9901238447619,1 45096U 20006BE  25255.54254728  .00015618  00000+0  72252-3 0  9999,2 45096  53.0497 313.9786 0004531  27.9744 332.1494 15.20321053310346
STARLINK-1184,45098,53.0563,0.0001302,15.06400305,546.3089428968278,548.1123034178981,1 45098U 20006BG  25254.51116613 -.00002707  00000+0 -16291-3 0  9995,2 45098  53.0563 330.9842 0001302  78.6404 281.4732 15.06400305310010
STARLINK-1193,45100,53.0559,0.0001149,15.06391666,546.4413750815665,548.0328260498763,1 45100U 20006BJ  25255.56903657  .00001976  00000+0  15155-3 0  9990,2 45100  53.0559 326.2339 0001149  91.5465 268.5656 15.06391666310175
STARLINK-1143,45179,53.0542,0.0005105,15.32389668,465.18959931543577,472.18020447727304,1 45179U 20012B   25254.82166975  .00059665  00000+0  18775-2 0  9993,2 45179  53.0542 103.7984 0005105 123.0307 237.1184 15.32389668308240
STARLINK-1201,45182,53.0387,0.0001362,16.01707955,268.7831975023364,270.5940652043173,1 45182U 20012E   25254.71449345  .00409819  84664-4  71208-3 0  9994,2 45182  53.0387  58.0586 0001362  24.8806 335.2289 16.01707955308712
STARLINK-1202,45183,53.0544,0.0001412,15.06386319,546.2756234132103,548.231353687177,1 45183U 20012F   25255.63170136 -.00000186  00000+0  64055-5 0  9992,2 45183  53.0544 125.9517 0001412  90.4062 269.7089 15.06386319308007
STARLINK-1216,45185,53.0536,0.0001213,15.06392141,546.3955970442848,548.0756924479001,1 45185U 20012H   25255.62432825  .00002729  00000+0  20209-3 0  9994,2 45185  53.0536 125.9852 0001213  96.7742 263.3385 15.06392141307946
STARLINK-1224,45186,53.036,0.0001175,16.05180031,259.31881713651364,260.878802551827,1 45186U 20012J   25255.21080931  .00506019  13164-3  71336-3 0  9994,2 45186  53.0360  76.5993 0001175   9.5728 350.5326 16.05180031308591
STARLINK-1225,45187,53.0541,0.0001378,15.0637566,546.3318342260345,548.2404808482515,1 45187U 20012K   25254.91295526  .00003205  00000+0  23408-3 0  9996,2 45187  53.0541 129.1803 0001378 103.7165 256.3978 15.06375660307886
STARLINK-1228,45188,53.0303,0.0008148,16.20734119,212.18524589127537,222.9335927762204,1 45188U 20012L   25255.83998639  .02209381  11853-4  10442-2 0  9995,2 45188  53.0303  10.1084 0008148 338.9140  21.1561 16.20734119309580
STARLINK-1230,45189,53.055,0.0001182,15.0639864,546.397149453308,548.0343028377674,1 45189U 20012M   25255.38104640 -.00000536  00000+0 -17080-4 0  9992,2 45189  53.0550 127.0787 0001182  95.4600 264.6523 15.06398640305182
STARLINK-1234,45190,53.0549,0.0001362,15.06392294,546.2919401287445,548.1784115094388,1 45190U 20012N   25255.53217511  .00000447  00000+0  48900-4 0  9997,2 45190  53.0549  86.3983 0001362  90.3688 269.7457 15.06392294308440
STARLINK-1237,45192,53.0438,0.0004523,16.14433912,231.71676140093405,237.698740762763,1 45192U 20012Q   25255.18850230  .00842754  44366-3  64746-3 0  9998,2 45192  53.0438  75.1521 0004523 284.0814  75.9719 16.14433912308674
STARLINK-1240,45194,53.039,0.0002728,15.95898861,283.9930536541988,287.62890367135697,1 45194U 20012S   25255.58335648  .00320334  51933-4  77383-3 0  9990,2 45194  53.0390  75.6239 0002728  86.8934 296.9266 15.95898861  6011
STARLINK-1244,45196,53.0366,5e-05,16.00649043,272.2876902849166,272.95276600773195,1 45196U 20012U   25255.52926432  .00432922  92258-4  79982-3 0  9992,2 45196  53.0366  75.4505 0000500  92.4747 267.6340 16.00649043308747
STARLINK-1269,45197,53.0541,0.0001462,15.0640745,546.1762422344027,548.2012074763516,1 45197U 20012V   25254.92767415  .00002941  00000+0  21618-3 0  9996,2 45197  53.0541 129.1155 0001462  98.5809 261.5346 15.06407450307865
STARLINK-1154,45198,53.0546,0.0001439,15.06397218,546.2235254962752,548.2166432651611,1 45198U 20012W   25255.58193772  .00001719  00000+0  13429-3 0  9992,2 45198  53.0546 106.1762 0001439  88.7007 271.4147 15.06397218308214
STARLINK-1199,45201,53.0548,0.0001361,15.06403113,546.2594784178409,548.1445556982844,1 45201U 20012Z   25254.86317293  .00000770  00000+0  70603-4 0  9997,2 45201  53.0548 109.4022 0001361  93.0652 267.0493 15.06403113308166
STARLINK-1206,45204,53.0388,0.000165,15.95852315,284.840982858439,287.0401284518048,1 45204U 20012AC  25255.58335648  .00216169  29524-4  52624-3 0  9994,2 45204  53.0388  56.4895 0001650  95.3409 216.4410 15.95852315  5954
STARLINK-1208,45205,53.0396,0.0003295,15.91623204,295.54040461939167,299.93980763232867,1 45205U 20012AD  25255.58335648  .00274416  39252-4  83296-3 0  9992,2 45205  53.0396  57.4883 0003295 106.1013 342.1171 15.91623204  5849
STARLINK-1209,45206,53.0552,0.0001461,15.06385346,546.2446707157314,548.2682706878704,1 45206U 20012AE  25254.80606189 -.00000657  00000+0 -25200-4 0  9990,2 45206  53.0552  89.6591 0001461  95.9708 264.1448 15.06385346307489
